[{"OBJECT_NAME":"WORLDVIEW-2 (WV-2)","OBJECT_ID":"2009-055A","EPOCH":"2026-03-05T06:33:38.672928","MEAN_MOTION":14.37908463,"ECCENTRICITY":0.00048101,"INCLINATION":98.4701,"RA_OF_ASC_NODE":139.2019,"ARG_OF_PERICENTER":156.8956,"MEAN_ANOMALY":203.2448,"EPHEMERIS_TYPE":0,"CLASSIFICATION_TYPE":"U","NORAD_CAT_ID":35946,"ELEMENT_SET_NO":999,"REV_AT_EPOCH":86071,"BSTAR":8.9019009e-5,"MEAN_MOTION_DOT":2.25e-6,"MEAN_MOTION_DDOT":0},{"OBJECT_NAME":"SMOS","OBJECT_ID":"2009-059A","EPOCH":"2026-03-05T05:21:38.107872","MEAN_MOTION":14.39756614,"ECCENTRICITY":0.00010262,"INCLINATION":98.4425,"RA_OF_ASC_NODE":253.0655,"ARG_OF_PERICENTER":81.0535,"MEAN_ANOMALY":279.077,"EPHEMERIS_TYPE":0,"CLASSIFICATION_TYPE":"U","NORAD_CAT_ID":36036,"ELEMENT_SET_NO":999,"REV_AT_EPOCH":85849,"BSTAR":0.0001596399,"MEAN_MOTION_DOT":4.57e-6,"MEAN_MOTION_DDOT":0},{"OBJECT_NAME":"YAOGAN-7","OBJECT_ID":"2009-069A","EPOCH":"2026-03-05T05:36:31.022496","MEAN_MOTION":14.77884141,"ECCENTRICITY":0.00251149,"INCLINATION":98.0219,"RA_OF_ASC_NODE":310.6667,"ARG_OF_PERICENTER":17.577,"MEAN_ANOMALY":342.6303,"EPHEMERIS_TYPE":0,"CLASSIFICATION_TYPE":"U","NORAD_CAT_ID":36110,"ELEMENT_SET_NO":999,"REV_AT_EPOCH":87427,"BSTAR":0.00015850724,"MEAN_MOTION_DOT":1.093e-5,"MEAN_MOTION_DDOT":0},{"OBJECT_NAME":"TANDEM-X","OBJECT_ID":"2010-030A","EPOCH":"2026-03-04T14:13:45.149088","MEAN_MOTION":15.19148698,"ECCENTRICITY":0.000186,"INCLINATION":97.4474,"RA_OF_ASC_NODE":72.7874,"ARG_OF_PERICENTER":96.6077,"MEAN_ANOMALY":263.5369,"EPHEMERIS_TYPE":0,"CLASSIFICATION_TYPE":"U","NORAD_CAT_ID":36605,"ELEMENT_SET_NO":999,"REV_AT_EPOCH":87076,"BSTAR":8.5277e-5,"MEAN_MOTION_DOT":1.724e-5,"MEAN_MOTION_DDOT":0},{"OBJECT_NAME":"CARTOSAT-2B","OBJECT_ID":"2010-035A","EPOCH":"2026-03-05T07:55:51.603168","MEAN_MOTION":14.78821911,"ECCENTRICITY":0.0012288,"INCLINATION":97.8558,"RA_OF_ASC_NODE":115.7046,"ARG_OF_PERICENTER":162.8995,"MEAN_ANOMALY":197.2633,"EPHEMERIS_TYPE":0,"CLASSIFICATION_TYPE":"U","NORAD_CAT_ID":36795,"ELEMENT_SET_NO":999,"REV_AT_EPOCH":84450,"BSTAR":0.00010924595,"MEAN_MOTION_DOT":7.53e-6,"MEAN_MOTION_DDOT":0},{"OBJECT_NAME":"YAOGAN-10","OBJECT_ID":"2010-038A","EPOCH":"2026-03-05T07:59:12.744096","MEAN_MOTION":14.8499197,"ECCENTRICITY":0.00016048,"INCLINATION":97.9081,"RA_OF_ASC_NODE":88.5378,"ARG_OF_PERICENTER":91.2098,"MEAN_ANOMALY":359.4857,"EPHEMERIS_TYPE":0,"CLASSIFICATION_TYPE":"U","NORAD_CAT_ID":36834,"ELEMENT_SET_NO":999,"REV_AT_EPOCH":84179,"BSTAR":0.00016829957,"MEAN_MOTION_DOT":1.381e-5,"MEAN_MOTION_DDOT":0},{"OBJECT_NAME":"COSMO-SKYMED 4","OBJECT_ID":"2010-060A","EPOCH":"2026-03-05T06:36:00.177984","MEAN_MOTION":14.82156631,"ECCENTRICITY":0.00014081,"INCLINATION":97.8853,"RA_OF_ASC_NODE":249.3752,"ARG_OF_PERICENTER":85.3799,"MEAN_ANOMALY":274.7575,"EPHEMERIS_TYPE":0,"CLASSIFICATION_TYPE":"U","NORAD_CAT_ID":37216,"ELEMENT_SET_NO":999,"REV_AT_EPOCH":82917,"BSTAR":0.00014752964,"MEAN_MOTION_DOT":1.122e-5,"MEAN_MOTION_DDOT":0},{"OBJECT_NAME":"RESOURCESAT-2","OBJECT_ID":"2011-015A","EPOCH":"2026-03-05T04:58:33.684384","MEAN_MOTION":14.214948,"ECCENTRICITY":0.00062636,"INCLINATION":98.7732,"RA_OF_ASC_NODE":132.3229,"ARG_OF_PERICENTER":150.6617,"MEAN_ANOMALY":209.4913,"EPHEMERIS_TYPE":0,"CLASSIFICATION_TYPE":"U","NORAD_CAT_ID":37387,"ELEMENT_SET_NO":999,"REV_AT_EPOCH":77140,"BSTAR":-7.6447942e-5,"MEAN_MOTION_DOT":-2.12e-6,"MEAN_MOTION_DDOT":0},{"OBJECT_NAME":"HAIYANG-2A","OBJECT_ID":"2011-043A","EPOCH":"2026-03-05T06:52:56.468352","MEAN_MOTION":13.78353941,"ECCENTRICITY":0.00011282,"INCLINATION":99.3408,"RA_OF_ASC_NODE":68.9578,"ARG_OF_PERICENTER":291.957,"MEAN_ANOMALY":68.1461,"EPHEMERIS_TYPE":0,"CLASSIFICATION_TYPE":"U","NORAD_CAT_ID":37781,"ELEMENT_SET_NO":999,"REV_AT_EPOCH":73236,"BSTAR":1.3020962e-5,"MEAN_MOTION_DOT":-3.1e-7,"MEAN_MOTION_DDOT":0},{"OBJECT_NAME":"RASAT","OBJECT_ID":"2011-044D","EPOCH":"2026-03-05T07:32:38.762592","MEAN_MOTION":14.68049142,"ECCENTRICITY":0.00210514,"INCLINATION":98.0567,"RA_OF_ASC_NODE":157.3225,"ARG_OF_PERICENTER":158.4873,"MEAN_ANOMALY":293.9909,"EPHEMERIS_TYPE":0,"CLASSIFICATION_TYPE":"U","NORAD_CAT_ID":37791,"ELEMENT_SET_NO":999,"REV_AT_EPOCH":77794,"BSTAR":0.00018069982,"MEAN_MOTION_DOT":9.91e-6,"MEAN_MOTION_DDOT":0},{"OBJECT_NAME":"SRMSAT","OBJECT_ID":"2011-058D","EPOCH":"2026-03-05T02:37:24.650112","MEAN_MOTION":14.11545541,"ECCENTRICITY":0.00118694,"INCLINATION":19.9731,"RA_OF_ASC_NODE":329.427,"ARG_OF_PERICENTER":138.8797,"MEAN_ANOMALY":2.6988,"EPHEMERIS_TYPE":0,"CLASSIFICATION_TYPE":"U","NORAD_CAT_ID":37841,"ELEMENT_SET_NO":999,"REV_AT_EPOCH":74309,"BSTAR":0.00011876107,"MEAN_MOTION_DOT":4.84e-6,"MEAN_MOTION_DDOT":0},{"OBJECT_NAME":"PLEIADES 1A","OBJECT_ID":"2011-076F","EPOCH":"2026-03-05T08:00:22.133664","MEAN_MOTION":14.58535427,"ECCENTRICITY":0.00016693,"INCLINATION":98.2055,"RA_OF_ASC_NODE":140.8021,"ARG_OF_PERICENTER":92.3277,"MEAN_ANOMALY":342.4264,"EPHEMERIS_TYPE":0,"CLASSIFICATION_TYPE":"U","NORAD_CAT_ID":38012,"ELEMENT_SET_NO":999,"REV_AT_EPOCH":75685,"BSTAR":0.00011115123,"MEAN_MOTION_DOT":4.71e-6,"MEAN_MOTION_DDOT":0},{"OBJECT_NAME":"ZIYUAN 1-02C (ZY 1-02C)","OBJECT_ID":"2011-079A","EPOCH":"2026-03-05T08:14:48.132096","MEAN_MOTION":14.3811827,"ECCENTRICITY":0.00052847,"INCLINATION":98.4184,"RA_OF_ASC_NODE":133.7844,"ARG_OF_PERICENTER":255.3559,"MEAN_ANOMALY":174.0724,"EPHEMERIS_TYPE":0,"CLASSIFICATION_TYPE":"U","NORAD_CAT_ID":38038,"ELEMENT_SET_NO":999,"REV_AT_EPOCH":74428,"BSTAR":0.00020615901,"MEAN_MOTION_DOT":5.82e-6,"MEAN_MOTION_DDOT":0},{"OBJECT_NAME":"ARIRANG-3 (KOMPSAT-3)","OBJECT_ID":"2012-025B","EPOCH":"2026-03-05T06:55:19.297056","MEAN_MOTION":14.62095498,"ECCENTRICITY":0.0006785,"INCLINATION":98.1056,"RA_OF_ASC_NODE":23.6189,"ARG_OF_PERICENTER":81.822,"MEAN_ANOMALY":278.3751,"EPHEMERIS_TYPE":0,"CLASSIFICATION_TYPE":"U","NORAD_CAT_ID":38338,"ELEMENT_SET_NO":999,"REV_AT_EPOCH":73616,"BSTAR":0.00018187526,"MEAN_MOTION_DOT":8.68e-6,"MEAN_MOTION_DDOT":0},{"OBJECT_NAME":"EXACTVIEW-1 (ADS-1B)","OBJECT_ID":"2012-039C","EPOCH":"2026-03-05T06:00:22.662720","MEAN_MOTION":14.24948909,"ECCENTRICITY":0.00118657,"INCLINATION":98.9636,"RA_OF_ASC_NODE":179.3721,"ARG_OF_PERICENTER":110.0966,"MEAN_ANOMALY":250.1491,"EPHEMERIS_TYPE":0,"CLASSIFICATION_TYPE":"U","NORAD_CAT_ID":38709,"ELEMENT_SET_NO":999,"REV_AT_EPOCH":70790,"BSTAR":0.00011489347,"MEAN_MOTION_DOT":2.23e-6,"MEAN_MOTION_DDOT":0},{"OBJECT_NAME":"SPOT 6","OBJECT_ID":"2012-047A","EPOCH":"2026-03-05T08:01:34.642272","MEAN_MOTION":14.58537688,"ECCENTRICITY":0.00014552,"INCLINATION":98.223,"RA_OF_ASC_NODE":132.8115,"ARG_OF_PERICENTER":95.3545,"MEAN_ANOMALY":264.782,"EPHEMERIS_TYPE":0,"CLASSIFICATION_TYPE":"U","NORAD_CAT_ID":38755,"ELEMENT_SET_NO":999,"REV_AT_EPOCH":71791,"BSTAR":0.00010627985,"MEAN_MOTION_DOT":4.48e-6,"MEAN_MOTION_DDOT":0}]
