WORLDVIEW-2 (WV-2)      
1 35946U 09055A   26064.27336427  .00000225  00000+0  89019-4 0  9997
2 35946  98.4701 139.2019 0004810 156.8956 203.2448 14.37908463860716
SMOS                    
1 36036U 09059A   26064.22335773  .00000457  00000+0  15964-3 0  9994
2 36036  98.4425 253.0655 0001026  81.0535 279.0770 14.39756614858491
YAOGAN-7                
1 36110U 09069A   26064.23369239  .00001093  00000+0  15851-3 0  9995
2 36110  98.0219 310.6667 0025114  17.5770 342.6303 14.77884141874275
TANDEM-X                
1 36605U 10030A   26063.59288367  .00001724  00000+0  85277-4 0  9995
2 36605  97.4474  72.7874 0001860  96.6077 263.5369 15.19148698870766
CARTOSAT-2B             
1 36795U 10035A   26064.33045837  .00000753  00000+0  10925-3 0  9994
2 36795  97.8558 115.7046 0012288 162.8995 197.2633 14.78821911844503
YAOGAN-10               
1 36834U 10038A   26064.33278639  .00001381  00000+0  16830-3 0  9998
2 36834  97.9081  88.5378 0001604  91.2098 359.4857 14.84991970841791
COSMO-SKYMED 4          
1 37216U 10060A   26064.27500206  .00001122  00000+0  14753-3 0  9994
2 37216  97.8853 249.3752 0001408  85.3799 274.7575 14.82156631829178
RESOURCESAT-2           
1 37387U 11015A   26064.20733431 -.00000212  00000+0 -76448-4 0  9996
2 37387  98.7732 132.3229 0006263 150.6617 209.4913 14.21494800771401
HAIYANG-2A              
1 37781U 11043A   26064.28676468 -.00000031  00000+0  13021-4 0  9995
2 37781  99.3408  68.9578 0001128 291.9570  68.1461 13.78353941732360
RASAT                   
1 37791U 11044D   26064.31433753  .00000991  00000+0  18070-3 0  9991
2 37791  98.0567 157.3225 0021051 158.4873 293.9909 14.68049142777948
SRMSAT                  
1 37841U 11058D   26064.10931308  .00000484  00000+0  11876-3 0  9992
2 37841  19.9731 329.4270 0011869 138.8797   2.6988 14.11545541743097
PLEIADES 1A             
1 38012U 11076F   26064.33358951  .00000471  00000+0  11115-3 0  9997
2 38012  98.2055 140.8021 0001669  92.3277 342.4264 14.58535427756853
ZIYUAN 1-02C (ZY 1-02C) 
1 38038U 11079A   26064.34361264  .00000582  00000+0  20616-3 0  9999
2 38038  98.4184 133.7844 0005284 255.3559 174.0724 14.38118270744286
ARIRANG-3 (KOMPSAT-3)   
1 38338U 12025B   26064.28841779  .00000868  00000+0  18188-3 0  9999
2 38338  98.1056  23.6189 0006785  81.8220 278.3751 14.62095498736166
EXACTVIEW-1 (ADS-1B)    
1 38709U 12039C   26064.25026230  .00000223  00000+0  11489-3 0  9992
2 38709  98.9636 179.3721 0011865 110.0966 250.1491 14.24948909707909
SPOT 6                  
1 38755U 12047A   26064.33442873  .00000448  00000+0  10628-3 0  9999
2 38755  98.2230 132.8115 0001455  95.3545 264.7820 14.58537688717910
